{
  "type": "FeatureCollection",
  "features": [
    {
      "type": "Feature",
      "properties": {
        "norad_id": 66998,
        "name": "2025-292F",
        "group": "last-30-days",
        "lat": 75.18153059553933,
        "lon": -84.19133797612008,
        "alt_km": 553.6768127117339,
        "timestamp": "2025-12-18T17:50:13.702619+00:00",
        "meta_object_name": "2025-292F",
        "meta_object_id": "2025-292F",
        "meta_epoch": "2025-12-18T06:12:38.702592",
        "meta_mean_motion": 15.04883543,
        "meta_eccentricity": 0.00145379,
        "meta_inclination": 97.6567,
        "meta_ra_of_asc_node": 64.7641,
        "meta_arg_of_pericenter": 257.1886,
        "meta_mean_anomaly": 102.7716,
        "meta_ephemeris_type": 0,
        "meta_classification_type": "U",
        "meta_norad_cat_id": 66998,
        "meta_element_set_no": 999,
        "meta_rev_at_epoch": 122,
        "meta_bstar": 0.00033031096,
        "meta_mean_motion_dot": 4.621e-05,
        "meta_mean_motion_ddot": 0,
        "tle_line1": "1 66998U 25292F   25352.25878128  .00004621  00000+0  33031-3 0  9991",
        "tle_line2": "2 66998  97.6567  64.7641 0014537 257.1886 102.7716 15.04883543  1225"
      },
      "geometry": {
        "type": "Point",
        "coordinates": [
          -84.19133797612008,
          75.18153059553933
        ]
      }
    },
    {
      "type": "Feature",
      "properties": {
        "norad_id": 66999,
        "name": "2025-292G",
        "group": "last-30-days",
        "lat": 73.47929673450341,
        "lon": -87.77865598982768,
        "alt_km": 553.3073528154819,
        "timestamp": "2025-12-18T17:50:13.702629+00:00",
        "meta_object_name": "2025-292G",
        "meta_object_id": "2025-292G",
        "meta_epoch": "2025-12-18T06:12:09.400896",
        "meta_mean_motion": 15.04947286,
        "meta_eccentricity": 0.00140565,
        "meta_inclination": 97.6575,
        "meta_ra_of_asc_node": 64.7654,
        "meta_arg_of_pericenter": 259.3232,
        "meta_mean_anomaly": 100.6412,
        "meta_ephemeris_type": 0,
        "meta_classification_type": "U",
        "meta_norad_cat_id": 66999,
        "meta_element_set_no": 999,
        "meta_rev_at_epoch": 122,
        "meta_bstar": 0.00032992262,
        "meta_mean_motion_dot": 4.623e-05,
        "meta_mean_motion_ddot": 0,
        "tle_line1": "1 66999U 25292G   25352.25844214  .00004623  00000+0  32992-3 0  9998",
        "tle_line2": "2 66999  97.6575  64.7654 0014056 259.3232 100.6412 15.04947286  1229"
      },
      "geometry": {
        "type": "Point",
        "coordinates": [
          -87.77865598982768,
          73.47929673450341
        ]
      }
    },
    {
      "type": "Feature",
      "properties": {
        "norad_id": 67000,
        "name": "2025-292H",
        "group": "last-30-days",
        "lat": 73.47917105127077,
        "lon": -87.77798464044855,
        "alt_km": 553.3078727280163,
        "timestamp": "2025-12-18T17:50:13.702638+00:00",
        "meta_object_name": "2025-292H",
        "meta_object_id": "2025-292H",
        "meta_epoch": "2025-12-17T15:50:27.314304",
        "meta_mean_motion": 15.04941506,
        "meta_eccentricity": 0.00140318,
        "meta_inclination": 97.6577,
        "meta_ra_of_asc_node": 64.1722,
        "meta_arg_of_pericenter": 261.5567,
        "meta_mean_anomaly": 98.4069,
        "meta_ephemeris_type": 0,
        "meta_classification_type": "U",
        "meta_norad_cat_id": 67000,
        "meta_element_set_no": 999,
        "meta_rev_at_epoch": 100,
        "meta_bstar": 0.00033244641,
        "meta_mean_motion_dot": 4.658e-05,
        "meta_mean_motion_ddot": 0,
        "tle_line1": "1 67000U 25292H   25351.66003836  .00004658  00000+0  33245-3 0  9993",
        "tle_line2": "2 67000  97.6577  64.1722 0014031 261.5567  98.4069 15.04941506  1001"
      },
      "geometry": {
        "type": "Point",
        "coordinates": [
          -87.77798464044855,
          73.47917105127077
        ]
      }
    },
    {
      "type": "Feature",
      "properties": {
        "norad_id": 67001,
        "name": "2025-292J",
        "group": "last-30-days",
        "lat": 81.63837525676308,
        "lon": -1.0060295240311432,
        "alt_km": 555.2653788329326,
        "timestamp": "2025-12-18T17:50:13.702649+00:00",
        "meta_object_name": "2025-292J",
        "meta_object_id": "2025-292J",
        "meta_epoch": "2025-12-18T06:16:40.918080",
        "meta_mean_motion": 15.04362461,
        "meta_eccentricity": 0.00142515,
        "meta_inclination": 97.6567,
        "meta_ra_of_asc_node": 64.7604,
        "meta_arg_of_pericenter": 247.923,
        "meta_mean_anomaly": 112.0483,
        "meta_ephemeris_type": 0,
        "meta_classification_type": "U",
        "meta_norad_cat_id": 67001,
        "meta_element_set_no": 999,
        "meta_rev_at_epoch": 122,
        "meta_bstar": 0.00035051848,
        "meta_mean_motion_dot": 4.839e-05,
        "meta_mean_motion_ddot": 0,
        "tle_line1": "1 67001U 25292J   25352.26158470  .00004839  00000+0  35052-3 0  9995",
        "tle_line2": "2 67001  97.6567  64.7604 0014251 247.9230 112.0483 15.04362461  1229"
      },
      "geometry": {
        "type": "Point",
        "coordinates": [
          -1.0060295240311432,
          81.63837525676308
        ]
      }
    },
    {
      "type": "Feature",
      "properties": {
        "norad_id": 67002,
        "name": "ZK-1A R/B",
        "group": "last-30-days",
        "lat": -26.62626341032568,
        "lon": -117.89160459043104,
        "alt_km": 508.0780728457976,
        "timestamp": "2025-12-18T17:50:13.702663+00:00",
        "meta_object_name": "ZK-1A R/B",
        "meta_object_id": "2025-292K",
        "meta_epoch": "2025-12-18T04:35:51.387936",
        "meta_mean_motion": 15.56337794,
        "meta_eccentricity": 0.0213767,
        "meta_inclination": 97.7234,
        "meta_ra_of_asc_node": 65.4127,
        "meta_arg_of_pericenter": 345.9205,
        "meta_mean_anomaly": 13.6145,
        "meta_ephemeris_type": 0,
        "meta_classification_type": "U",
        "meta_norad_cat_id": 67002,
        "meta_element_set_no": 999,
        "meta_rev_at_epoch": 124,
        "meta_bstar": 0.00073146183,
        "meta_mean_motion_dot": 0.00151802,
        "meta_mean_motion_ddot": 8.225292e-06,
        "tle_line1": "1 67002U 25292K   25352.19156699  .00151802  82253-5  73146-3 0  9994",
        "tle_line2": "2 67002  97.7234  65.4127 0213767 345.9205  13.6145 15.56337794  1245"
      },
      "geometry": {
        "type": "Point",
        "coordinates": [
          -117.89160459043104,
          -26.62626341032568
        ]
      }
    },
    {
      "type": "Feature",
      "properties": {
        "norad_id": 67003,
        "name": "STARLINK-35660",
        "group": "last-30-days",
        "lat": -21.74733982971309,
        "lon": 134.73828622171956,
        "alt_km": 291.13621447843343,
        "timestamp": "2025-12-18T17:50:13.702673+00:00",
        "meta_object_name": "STARLINK-35660",
        "meta_object_id": "2025-293A",
        "meta_epoch": "2025-12-17T20:00:01.999872",
        "meta_mean_motion": 15.96949357,
        "meta_eccentricity": 0.00041285,
        "meta_inclination": 69.9938,
        "meta_ra_of_asc_node": 309.0388,
        "meta_arg_of_pericenter": 267.0417,
        "meta_mean_anomaly": 109.6865,
        "meta_ephemeris_type": 0,
        "meta_classification_type": "U",
        "meta_norad_cat_id": 67003,
        "meta_element_set_no": 999,
        "meta_rev_at_epoch": 238,
        "meta_bstar": -0.0021949135,
        "meta_mean_motion_dot": -0.00948175,
        "meta_mean_motion_ddot": 0.00028832242,
        "tle_line1": "1 67003U 25293A   25351.83335648 -.00948175  28832-3 -21949-2 0  9992",
        "tle_line2": "2 67003  69.9938 309.0388 0004128 267.0417 109.6865 15.96949357  2381"
      },
      "geometry": {
        "type": "Point",
        "coordinates": [
          134.73828622171956,
          -21.74733982971309
        ]
      }
    },
    {
      "type": "Feature",
      "properties": {
        "norad_id": 67004,
        "name": "STARLINK-35913",
        "group": "last-30-days",
        "lat": -23.441955476476714,
        "lon": 135.46895564097565,
        "alt_km": 290.8826354273924,
        "timestamp": "2025-12-18T17:50:13.702683+00:00",
        "meta_object_name": "STARLINK-35913",
        "meta_object_id": "2025-293B",
        "meta_epoch": "2025-12-17T20:00:01.999872",
        "meta_mean_motion": 15.97007544,
        "meta_eccentricity": 0.0004053,
        "meta_inclination": 69.9938,
        "meta_ra_of_asc_node": 309.0368,
        "meta_arg_of_pericenter": 264.5457,
        "meta_mean_anomaly": 113.7697,
        "meta_ephemeris_type": 0,
        "meta_classification_type": "U",
        "meta_norad_cat_id": 67004,
        "meta_element_set_no": 999,
        "meta_rev_at_epoch": 238,
        "meta_bstar": -0.0021504018,
        "meta_mean_motion_dot": -0.00932001,
        "meta_mean_motion_ddot": 0.00027947769,
        "tle_line1": "1 67004U 25293B   25351.83335648 -.00932001  27948-3 -21504-2 0  9998",
        "tle_line2": "2 67004  69.9938 309.0368 0004053 264.5457 113.7697 15.97007544  2386"
      },
      "geometry": {
        "type": "Point",
        "coordinates": [
          135.46895564097565,
          -23.441955476476714
        ]
      }
    }
  ]
}